NORAD_CAT_ID,OBJECT_NAME,OBJECT_TYPE,EPOCH,MEAN_MOTION,ECCENTRICITY,INCLINATION,RA_OF_ASC_NODE,ARG_OF_PERICENTER,MEAN_ANOMALY,BSTAR,MEAN_MOTION_DOT,MEAN_MOTION_DDOT,TLE_LINE0,TLE_LINE1,TLE_LINE2,SEMIMAJOR_AXIS,PERIOD,APOGEE,PERIGEE,DECAYED
55667.0,STARLINK-5456,PAYLOAD,2023-07-01 06:33:48,15.69904747,0.0003426,69.9979,134.5753,264.1961,95.8845,-4.1525e-06,-7.12e-06,0.0,0 STARLINK-5456,1 55667U 23021AR  23182.27348260 -.00000712  00000-0 -41525-5 0  9999,2 55667  69.9979 134.5753 0003426 264.1961  95.8845 15.69904747 21499,6737.307,91.725,361.48,356.863,0.0
55667.0,STARLINK-5456,PAYLOAD,2023-07-01 14:12:33,15.69921567,0.000377,69.9975,133.6804,260.465,99.612,-6.2345e-06,-9.63e-06,0.0,0 STARLINK-5456,1 55667U 23021AR  23182.59205671 -.00000963  00000-0 -62345-5 0  9993,2 55667  69.9975 133.6804 0003770 260.4650  99.6120 15.69921567 21541,6737.258,91.724,361.663,356.583,0.0
55667.0,STARLINK-5456,PAYLOAD,2023-07-01 23:23:03,15.69933029,0.0003663,69.999,132.606,259.815,100.2632,1.4585e-05,1.542e-05,0.0,0 STARLINK-5456,1 55667U 23021AR  23182.97434568  .00001542  00000-0  14585-4 0  9998,2 55667  69.9990 132.6060 0003663 259.8150 100.2632 15.69933029 21609,6737.226,91.724,361.558,356.623,0.0
55667.0,STARLINK-5456,PAYLOAD,2023-07-02 14:40:35,15.6991481,0.0003526,69.9985,130.8142,255.3061,104.7744,2.8553e-05,3.221e-05,0.0,0 STARLINK-5456,1 55667U 23021AR  23183.61152193  .00003221  00000-0  28553-4 0  9997,2 55667  69.9985 130.8142 0003526 255.3061 104.7744 15.69914810 21705,6737.278,91.725,361.518,356.767,0.0
55667.0,STARLINK-5456,PAYLOAD,2023-07-03 02:54:35,15.69933941,0.0003581,69.998,129.3808,260.6675,99.4115,5.2883e-06,4.23e-06,0.0,0 STARLINK-5456,1 55667U 23021AR  23184.12124770  .00000423  00000-0  52883-5 0  9999,2 55667  69.9980 129.3808 0003581 260.6675  99.4115 15.69933941 21789,6737.223,91.724,361.501,356.675,0.0
55667.0,STARLINK-5456,PAYLOAD,2023-07-03 05:58:07,15.69917147,0.000324,69.998,129.0228,259.8749,100.2082,-1.3852e-05,-1.877e-05,0.0,0 STARLINK-5456,1 55667U 23021AR  23184.24869467 -.00001877  00000-0 -13852-4 0  9999,2 55667  69.9980 129.0228 0003240 259.8749 100.2082 15.69917147 21803,6737.271,91.725,361.319,356.953,0.0
55667.0,STARLINK-5456,PAYLOAD,2023-07-03 22:47:22,15.69929341,0.0003334,69.9969,127.0508,263.3891,96.6925,6.7958e-06,6.05e-06,0.0,0 STARLINK-5456,1 55667U 23021AR  23184.94956885  .00000605  00000-0  67958-5 0  9990,2 55667  69.9969 127.0508 0003334 263.3891  96.6925 15.69929341 21916,6737.236,91.724,361.347,356.855,0.0
55667.0,STARLINK-5456,PAYLOAD,2023-07-04 23:15:25,15.69918675,0.000346,69.998,124.1853,260.8113,99.2691,1.152e-05,1.172e-05,0.0,0 STARLINK-5456,1 55667U 23021AR  23185.96904258  .00001172  00000-0  11520-4 0  9993,2 55667  69.9980 124.1853 0003460 260.8113  99.2691 15.69918675 22074,6737.267,91.724,361.463,356.801,0.0
55667.0,STARLINK-5456,PAYLOAD,2023-07-05 13:01:10,15.69928317,0.0003481,69.999,122.5733,261.0464,99.0338,2.6686e-05,2.998e-05,0.0,0 STARLINK-5456,1 55667U 23021AR  23186.54248678  .00002998  00000-0  26686-4 0  9991,2 55667  69.9990 122.5733 0003481 261.0464  99.0338 15.69928317 22169,6737.239,91.724,361.449,356.759,0.0
55667.0,STARLINK-5456,PAYLOAD,2023-07-06 05:50:27,15.69925704,0.0003219,69.9998,120.6026,260.6387,99.4444,9.8621e-06,9.73e-06,0.0,0 STARLINK-5456,1 55667U 23021AR  23187.24337348  .00000973  00000-0  98621-5 0  9992,2 55667  69.9998 120.6026 0003219 260.6387  99.4444 15.69925704 22270,6737.247,91.724,361.28,356.943,0.0
55667.0,STARLINK-5456,PAYLOAD,2023-07-07 06:18:29,15.69926148,0.0003651,69.9978,117.7372,261.4548,98.6234,1.7157e-05,1.851e-05,0.0,0 STARLINK-5456,1 55667U 23021AR  23188.26283988  .00001851  00000-0  17157-4 0  9995,2 55667  69.9978 117.7372 0003651 261.4548  98.6234 15.69926148 22436,6737.245,91.724,361.57,356.651,0.0
55667.0,STARLINK-5456,PAYLOAD,2023-07-08 06:46:31,15.69908259,0.0003296,69.9985,114.8702,267.5329,92.549,-2.9834e-05,-3.796e-05,0.0,0 STARLINK-5456,1 55667U 23021AR  23189.28231460 -.00003796  00000-0 -29834-4 0  9993,2 55667  69.9985 114.8702 0003296 267.5329  92.5490 15.69908259 22595,6737.296,91.725,361.382,356.941,0.0
55667.0,STARLINK-5456,PAYLOAD,2023-07-09 04:11:03,15.69921611,0.0003009,70.0,112.3621,274.8402,85.245,2.5857e-05,2.897e-05,0.0,0 STARLINK-5456,1 55667U 23021AR  23190.17434674  .00002897  00000-0  25857-4 0  9995,2 55667  70.0000 112.3621 0003009 274.8402  85.2450 15.69921611 22732,6737.258,91.724,361.151,357.096,0.0
55667.0,STARLINK-5456,PAYLOAD,2023-07-10 04:39:05,15.69924798,0.0003024,69.9989,109.4953,264.5372,95.5479,8.1147e-06,7.63e-06,0.0,0 STARLINK-5456,1 55667U 23021AR  23191.19380969  .00000763  00000-0  81147-5 0  9990,2 55667  69.9989 109.4953 0003024 264.5372  95.5479 15.69924798 22890,6737.249,91.724,361.151,357.077,0.0
55667.0,STARLINK-5456,PAYLOAD,2023-07-10 12:17:51,15.69915605,0.000313,69.9988,108.6002,272.6978,87.386,2.0486e-05,2.25e-05,0.0,0 STARLINK-5456,1 55667U 23021AR  23191.51240008  .00002250  00000-0  20486-4 0  9996,2 55667  69.9988 108.6002 0003130 272.6978  87.3860 15.69915605 22941,6737.275,91.725,361.249,357.032,0.0
55667.0,STARLINK-5456,PAYLOAD,2023-07-11 03:35:21,15.69928524,0.0003592,69.9988,106.8088,270.235,89.8434,8.3656e-06,7.93e-06,0.0,0 STARLINK-5456,1 55667U 23021AR  23192.14955879  .00000793  00000-0  83656-5 0  9994,2 55667  69.9988 106.8088 0003592 270.2350  89.8434 15.69928524 23045,6737.238,91.724,361.524,356.683,0.0
55667.0,STARLINK-5456,PAYLOAD,2023-07-12 04:03:23,15.69930355,0.0003366,69.9989,103.942,267.0301,93.0509,-9.0257e-06,-1.298e-05,0.0,0 STARLINK-5456,1 55667U 23021AR  23193.16902578 -.00001298  00000-0 -90257-5 0  9993,2 55667  69.9989 103.9420 0003366 267.0301  93.0509 15.69930355 23206,6737.233,91.724,361.366,356.83,0.0
55667.0,STARLINK-5456,PAYLOAD,2023-07-13 21:20:42,15.69923613,0.0003109,70.0005,99.1058,254.5355,105.5497,2.4534e-05,2.738e-05,0.0,0 STARLINK-5456,1 55667U 23021AR  23194.88938256  .00002738  00000-0  24534-4 0  9997,2 55667  70.0005  99.1058 0003109 254.5355 105.5497 15.69923613 23479,6737.253,91.724,361.212,357.023,0.0
55667.0,STARLINK-5456,PAYLOAD,2023-07-15 00:52:14,15.69934416,0.0003483,70.0,95.8813,265.1846,94.8952,3.6393e-05,4.167e-05,0.0,0 STARLINK-5456,1 55667U 23021AR  23196.03627963  .00004167  00000-0  36393-4 0  9990,2 55667  70.0000  95.8813 0003483 265.1846  94.8952 15.69934416 23653,6737.222,91.724,361.433,356.74,0.0
55667.0,STARLINK-5456,PAYLOAD,2023-07-15 17:41:31,15.69925719,0.0002734,70.0022,93.9125,250.0071,110.0831,1.4572e-05,1.54e-05,0.0,0 STARLINK-5456,1 55667U 23021AR  23196.73716750  .00001540  00000-0  14572-4 0  9997,2 55667  70.0022  93.9125 0002734 250.0071 110.0831 15.69925719 23768,6737.247,91.724,360.953,357.27,0.0
55667.0,STARLINK-5456,PAYLOAD,2023-07-16 02:52:02,15.69924972,0.0003537,69.999,92.8357,265.4918,94.5873,2.0479e-06,3.3e-07,0.0,0 STARLINK-5456,1 55667U 23021AR  23197.11946928  .00000033  00000-0  20479-5 0  9992,2 55667  69.9990  92.8357 0003537 265.4918  94.5873 15.69924972 23825,6737.249,91.724,361.497,356.731,0.0
55667.0,STARLINK-5456,PAYLOAD,2023-07-16 19:41:18,15.69930614,0.0003745,69.9998,90.8663,262.9206,97.1564,1.4477e-05,1.529e-05,0.0,0 STARLINK-5456,1 55667U 23021AR  23197.82034874  .00001529  00000-0  14477-4 0  9999,2 55667  69.9998  90.8663 0003745 262.9206  97.1564 15.69930614 23932,6737.233,91.724,361.621,356.574,0.0
55667.0,STARLINK-5456,PAYLOAD,2023-07-18 00:44:35,15.69928658,0.0002954,69.9996,87.4619,248.6391,111.4489,2.7717e-05,3.122e-05,0.0,0 STARLINK-5456,1 55667U 23021AR  23199.03096644  .00003122  00000-0  27717-4 0  9999,2 55667  69.9996  87.4619 0002954 248.6391 111.4489 15.69928658 24123,6737.238,91.724,361.093,357.113,0.0
55667.0,STARLINK-5456,PAYLOAD,2023-07-18 02:16:21,15.69901572,0.000329,69.9997,87.2832,251.0142,109.0697,-2.6444e-05,-3.388e-05,0.0,0 STARLINK-5456,1 55667U 23021AR  23199.09469584 -.00003388  00000-0 -26444-4 0  9994,2 55667  69.9997  87.2832 0003290 251.0142 109.0697 15.69901572 24136,6737.316,91.725,361.397,356.964,0.0
55667.0,STARLINK-5456,PAYLOAD,2023-07-18 20:37:22,15.69926211,0.0003197,70.0,85.1345,254.4539,105.6304,2.0337e-06,3.2e-07,0.0,0 STARLINK-5456,1 55667U 23021AR  23199.85928521  .00000032  00000-0  20337-5 0  9996,2 55667  70.0000  85.1345 0003197 254.4539 105.6304 15.69926211 24250,6737.245,91.724,361.264,356.956,0.0
55667.0,STARLINK-5456,PAYLOAD,2023-07-21 02:08:41,15.69926867,0.0003385,69.9987,78.8618,259.0995,100.982,1.4514e-05,1.533e-05,0.0,0 STARLINK-5456,1 55667U 23021AR  23202.08937245  .00001533  00000-0  14514-4 0  9995,2 55667  69.9987  78.8618 0003385 259.0995 100.9820 15.69926867 24606,6737.243,91.724,361.389,356.828,0.0
55667.0,STARLINK-5456,PAYLOAD,2023-07-24 14:15:03,15.69933394,0.0003796,69.9965,69.0091,268.6803,91.3958,-1.1424e-05,-1.587e-05,0.0,0 STARLINK-5456,1 55667U 23021AR  23205.59379329 -.00001587  00000-0 -11424-4 0  9995,2 55667  69.9965  69.0091 0003796 268.6803  91.3958 15.69933394 25462,6737.225,91.724,361.647,356.532,0.0
55667.0,STARLINK-5456,PAYLOAD,2023-07-25 02:29:04,15.6993734,0.0004013,69.9974,67.5754,269.1895,90.884,-1.1586e-06,-3.53e-06,0.0,0 STARLINK-5456,1 55667U 23021AR  23206.10351993 -.00000353  00000-0 -11586-5 0  9990,2 55667  69.9974  67.5754 0004013 269.1895  90.8840 15.69937340 25549,6737.213,91.723,361.782,356.375,0.0
55667.0,STARLINK-5456,PAYLOAD,2023-07-25 23:53:36,15.69927114,0.000321,69.9976,65.0677,265.4143,94.6686,1.558e-05,1.661e-05,0.0,0 STARLINK-5456,1 55667U 23021AR  23206.99555988  .00001661  00000-0  15580-4 0  9995,2 55667  69.9976  65.0677 0003210 265.4143  94.6686 15.69927114 25684,6737.243,91.724,361.27,356.945,0.0
55667.0,STARLINK-5456,PAYLOAD,2023-07-26 21:18:11,15.69883267,0.0005485,69.998,62.5584,239.7335,120.3318,-3.7333e-05,-4.695e-05,0.0,0 STARLINK-5456,1 55667U 23021AR  23207.88763830 -.00004695  00000-0 -37333-4 0  9993,2 55667  69.9980  62.5584 0005485 239.7335 120.3318 15.69883267 25826,6737.368,91.727,362.928,355.538,0.0
